[{"OBJECT_NAME":"STARLINK-5755","OBJECT_ID":"2023-020AH","EPOCH":"2026-03-08T05:04:17.677344","MEAN_MOTION":15.02545506,"ECCENTRICITY":0.00010617,"INCLINATION":43.0059,"RA_OF_ASC_NODE":359.9807,"ARG_OF_PERICENTER":282.3198,"MEAN_ANOMALY":77.7525,"EPHEMERIS_TYPE":0,"CLASSIFICATION_TYPE":"U","NORAD_CAT_ID":55600,"ELEMENT_SET_NO":999,"REV_AT_EPOCH":16884,"BSTAR":0.00011301118,"MEAN_MOTION_DOT":1.324e-5,"MEAN_MOTION_DDOT":0},{"OBJECT_NAME":"FENGYUN 1C DEB","OBJECT_ID":"1999-025BNP","EPOCH":"2026-03-08T20:32:05.282880","MEAN_MOTION":15.24866573,"ECCENTRICITY":0.00982022,"INCLINATION":98.3915,"RA_OF_ASC_NODE":217.6412,"ARG_OF_PERICENTER":158.7529,"MEAN_ANOMALY":201.7829,"EPHEMERIS_TYPE":0,"CLASSIFICATION_TYPE":"U","NORAD_CAT_ID":31281,"ELEMENT_SET_NO":999,"REV_AT_EPOCH":1008,"BSTAR":0.0025465872,"MEAN_MOTION_DOT":0.00073171,"MEAN_MOTION_DDOT":0}]
